QZS-1R                  
1 49336U 21096A   23274.82537929 -.00000250  00000+0  00000+0 0  9992
2 49336  35.4099  94.4916 0745089 269.7904  77.8490  1.00283324  7083
